SL-16 R/B               
1 25400U 98043G   26048.45435352  .00000061  00000+0  44635-4 0  9998
2 25400  98.8221   1.6787 0010953  74.5953 285.6435 14.26044825436106
SL-16 R/B               
1 25407U 98045B   26048.51338683  .00000267  00000+0  15874-3 0  9993
2 25407  71.0089 224.0026 0005751  44.1081 316.0500 14.16189534424240
ISS (ZARYA)             
1 25544U 98067A   26048.44098000  .00009950  00000+0  19045-3 0  9999
2 25544  51.6319 172.4442 0011010 107.8523 252.3667 15.48663917553194
CZ-4B R/B               
1 25732U 99025C   26048.12601235  .00000062  00000+0  50709-4 0  9996
2 25732  98.6669  92.8905 0037831  45.4481 325.6059 14.18261219385254
OKEAN-O                 
1 25860U 99039A   26048.17092887  .00000811  00000+0  11336-3 0  9999
2 25860  97.9488 108.2665 0001800  79.8265 280.3150 14.80301618431359
SL-16 R/B               
1 25861U 99039B   26048.17017059  .00000667  00000+0  91401-4 0  9999
2 25861  98.0011 107.2926 0013996 328.7827  31.2553 14.81702258433822
DELTA 2 R/B             
1 25876U 99041E   26048.33641695  .00002035  00000+0  36489-3 0  9990
2 25876  51.7658  22.5610 0502213 288.3168  66.3766 14.11761236360158
HELIOS 1B               
1 25977U 99064A   26048.33377355  .00001940  00000+0  21988-3 0  9998
2 25977  98.1720 309.9769 0002340 101.8743 258.2735 14.87611261682235
TERRA                   
1 25994U 99068A   26048.45313387  .00000471  00000+0  10510-3 0  9996
2 25994  97.9637 102.6565 0001261 214.5582 259.4798 14.60992195392121
SL-16 R/B               
1 26070U 00006B   26048.45288173 -.00000131  00000+0 -42059-4 0  9999
2 26070  71.0023 140.3884 0017995 218.5850 141.3988 14.15818483345692
TITAN 4B R/B            
1 26474U 00047B   26048.48647938  .00003377  00000+0  21592-3 0  9994
2 26474  67.9884  97.3147 0037230  59.9834 300.5000 15.09381201389863
ENVISAT                 
1 27386U 02009A   26048.45737367  .00000123  00000+0  53711-4 0  9995
2 27386  98.3695   2.5410 0001375  86.8580  23.2564 14.39029088256268
