CCSDS_OMM_VERS = 2.0
CREATION_DATE  = 
ORIGINATOR     = 

OBJECT_NAME    = SL-16 R/B
OBJECT_ID      = 1998-043G
CENTER_NAME    = EARTH
REF_FRAME      = TEME
TIME_SYSTEM    = UTC
MEAN_ELEMENT_THEORY = SGP/SGP4

EPOCH          = 2026-02-17T10:54:16.144128
MEAN_MOTION    = 14.26044825
ECCENTRICITY   = .0010953
INCLINATION    = 98.8221
RA_OF_ASC_NODE = 1.6787
ARG_OF_PERICENTER = 74.5953
MEAN_ANOMALY   = 285.6435

EPHEMERIS_TYPE = 0
CLASSIFICATION_TYPE = U
NORAD_CAT_ID   = 25400
ELEMENT_SET_NO = 999
REV_AT_EPOCH   = 43610
BSTAR          = .44635E-4
MEAN_MOTION_DOT = .61E-6
MEAN_MOTION_DDOT = 0

CCSDS_OMM_VERS = 2.0
CREATION_DATE  = 
ORIGINATOR     = 

OBJECT_NAME    = SL-16 R/B
OBJECT_ID      = 1998-045B
CENTER_NAME    = EARTH
REF_FRAME      = TEME
TIME_SYSTEM    = UTC
MEAN_ELEMENT_THEORY = SGP/SGP4

EPOCH          = 2026-02-17T12:19:16.622112
MEAN_MOTION    = 14.16189534
ECCENTRICITY   = .0005751
INCLINATION    = 71.0089
RA_OF_ASC_NODE = 224.0026
ARG_OF_PERICENTER = 44.1081
MEAN_ANOMALY   = 316.0500

EPHEMERIS_TYPE = 0
CLASSIFICATION_TYPE = U
NORAD_CAT_ID   = 25407
ELEMENT_SET_NO = 999
REV_AT_EPOCH   = 42424
BSTAR          = .15874E-3
MEAN_MOTION_DOT = .267E-5
MEAN_MOTION_DDOT = 0

CCSDS_OMM_VERS = 2.0
CREATION_DATE  = 
ORIGINATOR     = 

OBJECT_NAME    = ISS (ZARYA)
OBJECT_ID      = 1998-067A
CENTER_NAME    = EARTH
REF_FRAME      = TEME
TIME_SYSTEM    = UTC
MEAN_ELEMENT_THEORY = SGP/SGP4

EPOCH          = 2026-02-17T10:35:00.672000
MEAN_MOTION    = 15.48663917
ECCENTRICITY   = .001101
INCLINATION    = 51.6319
RA_OF_ASC_NODE = 172.4442
ARG_OF_PERICENTER = 107.8523
MEAN_ANOMALY   = 252.3667

EPHEMERIS_TYPE = 0
CLASSIFICATION_TYPE = U
NORAD_CAT_ID   = 25544
ELEMENT_SET_NO = 999
REV_AT_EPOCH   = 55319
BSTAR          = .19045E-3
MEAN_MOTION_DOT = .995E-4
MEAN_MOTION_DDOT = 0

CCSDS_OMM_VERS = 2.0
CREATION_DATE  = 
ORIGINATOR     = 

OBJECT_NAME    = CZ-4B R/B
OBJECT_ID      = 1999-025C
CENTER_NAME    = EARTH
REF_FRAME      = TEME
TIME_SYSTEM    = UTC
MEAN_ELEMENT_THEORY = SGP/SGP4

EPOCH          = 2026-02-17T03:01:27.467040
MEAN_MOTION    = 14.18261219
ECCENTRICITY   = .00378312
INCLINATION    = 98.6669
RA_OF_ASC_NODE = 92.8905
ARG_OF_PERICENTER = 45.4481
MEAN_ANOMALY   = 325.6059

EPHEMERIS_TYPE = 0
CLASSIFICATION_TYPE = U
NORAD_CAT_ID   = 25732
ELEMENT_SET_NO = 999
REV_AT_EPOCH   = 38525
BSTAR          = .50708921E-4
MEAN_MOTION_DOT = .62E-6
MEAN_MOTION_DDOT = 0

CCSDS_OMM_VERS = 2.0
CREATION_DATE  = 
ORIGINATOR     = 

OBJECT_NAME    = OKEAN-O
OBJECT_ID      = 1999-039A
CENTER_NAME    = EARTH
REF_FRAME      = TEME
TIME_SYSTEM    = UTC
MEAN_ELEMENT_THEORY = SGP/SGP4

EPOCH          = 2026-02-17T04:06:08.254368
MEAN_MOTION    = 14.80301618
ECCENTRICITY   = .00018002
INCLINATION    = 97.9488
RA_OF_ASC_NODE = 108.2665
ARG_OF_PERICENTER = 79.8265
MEAN_ANOMALY   = 280.3150

EPHEMERIS_TYPE = 0
CLASSIFICATION_TYPE = U
NORAD_CAT_ID   = 25860
ELEMENT_SET_NO = 999
REV_AT_EPOCH   = 43135
BSTAR          = .11335639E-3
MEAN_MOTION_DOT = .811E-5
MEAN_MOTION_DDOT = 0

CCSDS_OMM_VERS = 2.0
CREATION_DATE  = 
ORIGINATOR     = 

OBJECT_NAME    = SL-16 R/B
OBJECT_ID      = 1999-039B
CENTER_NAME    = EARTH
REF_FRAME      = TEME
TIME_SYSTEM    = UTC
MEAN_ELEMENT_THEORY = SGP/SGP4

EPOCH          = 2026-02-17T04:05:02.738976
MEAN_MOTION    = 14.81702258
ECCENTRICITY   = .00139968
INCLINATION    = 98.0011
RA_OF_ASC_NODE = 107.2926
ARG_OF_PERICENTER = 328.7827
MEAN_ANOMALY   = 31.2553

EPHEMERIS_TYPE = 0
CLASSIFICATION_TYPE = U
NORAD_CAT_ID   = 25861
ELEMENT_SET_NO = 999
REV_AT_EPOCH   = 43382
BSTAR          = .91401161E-4
MEAN_MOTION_DOT = .667E-5
MEAN_MOTION_DDOT = 0

CCSDS_OMM_VERS = 2.0
CREATION_DATE  = 
ORIGINATOR     = 

OBJECT_NAME    = DELTA 2 R/B
OBJECT_ID      = 1999-041E
CENTER_NAME    = EARTH
REF_FRAME      = TEME
TIME_SYSTEM    = UTC
MEAN_ELEMENT_THEORY = SGP/SGP4

EPOCH          = 2026-02-17T08:04:26.424480
MEAN_MOTION    = 14.11761236
ECCENTRICITY   = .0502213
INCLINATION    = 51.7658
RA_OF_ASC_NODE = 22.5610
ARG_OF_PERICENTER = 288.3168
MEAN_ANOMALY   = 66.3766

EPHEMERIS_TYPE = 0
CLASSIFICATION_TYPE = U
NORAD_CAT_ID   = 25876
ELEMENT_SET_NO = 999
REV_AT_EPOCH   = 36015
BSTAR          = .36489E-3
MEAN_MOTION_DOT = .2035E-4
MEAN_MOTION_DDOT = 0

CCSDS_OMM_VERS = 2.0
CREATION_DATE  = 
ORIGINATOR     = 

OBJECT_NAME    = HELIOS 1B
OBJECT_ID      = 1999-064A
CENTER_NAME    = EARTH
REF_FRAME      = TEME
TIME_SYSTEM    = UTC
MEAN_ELEMENT_THEORY = SGP/SGP4

EPOCH          = 2026-02-17T08:00:38.034720
MEAN_MOTION    = 14.87611261
ECCENTRICITY   = .000234
INCLINATION    = 98.1720
RA_OF_ASC_NODE = 309.9769
ARG_OF_PERICENTER = 101.8743
MEAN_ANOMALY   = 258.2735

EPHEMERIS_TYPE = 0
CLASSIFICATION_TYPE = U
NORAD_CAT_ID   = 25977
ELEMENT_SET_NO = 999
REV_AT_EPOCH   = 68223
BSTAR          = .21988E-3
MEAN_MOTION_DOT = .194E-4
MEAN_MOTION_DDOT = 0

CCSDS_OMM_VERS = 2.0
CREATION_DATE  = 
ORIGINATOR     = 

OBJECT_NAME    = TERRA
OBJECT_ID      = 1999-068A
CENTER_NAME    = EARTH
REF_FRAME      = TEME
TIME_SYSTEM    = UTC
MEAN_ELEMENT_THEORY = SGP/SGP4

EPOCH          = 2026-02-17T10:52:30.766368
MEAN_MOTION    = 14.60992195
ECCENTRICITY   = .0001261
INCLINATION    = 97.9637
RA_OF_ASC_NODE = 102.6565
ARG_OF_PERICENTER = 214.5582
MEAN_ANOMALY   = 259.4798

EPHEMERIS_TYPE = 0
CLASSIFICATION_TYPE = U
NORAD_CAT_ID   = 25994
ELEMENT_SET_NO = 999
REV_AT_EPOCH   = 39212
BSTAR          = .1051E-3
MEAN_MOTION_DOT = .471E-5
MEAN_MOTION_DDOT = 0

CCSDS_OMM_VERS = 2.0
CREATION_DATE  = 
ORIGINATOR     = 

OBJECT_NAME    = SL-16 R/B
OBJECT_ID      = 2000-006B
CENTER_NAME    = EARTH
REF_FRAME      = TEME
TIME_SYSTEM    = UTC
MEAN_ELEMENT_THEORY = SGP/SGP4

EPOCH          = 2026-02-17T10:52:08.981472
MEAN_MOTION    = 14.15818483
ECCENTRICITY   = .0017995
INCLINATION    = 71.0023
RA_OF_ASC_NODE = 140.3884
ARG_OF_PERICENTER = 218.5850
MEAN_ANOMALY   = 141.3988

EPHEMERIS_TYPE = 0
CLASSIFICATION_TYPE = U
NORAD_CAT_ID   = 26070
ELEMENT_SET_NO = 999
REV_AT_EPOCH   = 34569
BSTAR          = -.42059E-4
MEAN_MOTION_DOT = -.131E-5
MEAN_MOTION_DDOT = 0

CCSDS_OMM_VERS = 2.0
CREATION_DATE  = 
ORIGINATOR     = 

OBJECT_NAME    = TITAN 4B R/B
OBJECT_ID      = 2000-047B
CENTER_NAME    = EARTH
REF_FRAME      = TEME
TIME_SYSTEM    = UTC
MEAN_ELEMENT_THEORY = SGP/SGP4

EPOCH          = 2026-02-17T11:40:31.818432
MEAN_MOTION    = 15.09381201
ECCENTRICITY   = .003723
INCLINATION    = 67.9884
RA_OF_ASC_NODE = 97.3147
ARG_OF_PERICENTER = 59.9834
MEAN_ANOMALY   = 300.5000

EPHEMERIS_TYPE = 0
CLASSIFICATION_TYPE = U
NORAD_CAT_ID   = 26474
ELEMENT_SET_NO = 999
REV_AT_EPOCH   = 38986
BSTAR          = .21592E-3
MEAN_MOTION_DOT = .3377E-4
MEAN_MOTION_DDOT = 0

CCSDS_OMM_VERS = 2.0
CREATION_DATE  = 
ORIGINATOR     = 

OBJECT_NAME    = ENVISAT
OBJECT_ID      = 2002-009A
CENTER_NAME    = EARTH
REF_FRAME      = TEME
TIME_SYSTEM    = UTC
MEAN_ELEMENT_THEORY = SGP/SGP4

EPOCH          = 2026-02-17T10:58:37.085088
MEAN_MOTION    = 14.39029088
ECCENTRICITY   = .0001375
INCLINATION    = 98.3695
RA_OF_ASC_NODE = 2.5410
ARG_OF_PERICENTER = 86.8580
MEAN_ANOMALY   = 23.2564

EPHEMERIS_TYPE = 0
CLASSIFICATION_TYPE = U
NORAD_CAT_ID   = 27386
ELEMENT_SET_NO = 999
REV_AT_EPOCH   = 25626
BSTAR          = .53711E-4
MEAN_MOTION_DOT = .123E-5
MEAN_MOTION_DDOT = 0

